{
  "type": "FeatureCollection",
  "name": "oco_study_regions",
  "note": "USER-EDITABLE study polygons (WGS84 lon/lat). Coarse outlines drawn from general public geography (Natural Earth-scale coastline). They are analysis boxes, NOT navigational or legal boundaries. Verify/adjust against a public chart (e.g. OpenStreetMap seamarks, Natural Earth) before publishing results. Land is masked separately with a sourced coastline.",
  "features": [
    {"type": "Feature",
     "properties": {"id": "hormuz_strait", "name": "Strait of Hormuz (main channel, coarse)", "kind": "strait", "verified": false,
                    "source": "coarse outline from general public geography; edit in QGIS or geojson.io", "use": "sentinel1_snapshot"},
     "geometry": {"type": "Polygon", "coordinates": [[[55.95,26.35],[56.35,26.20],[56.75,26.25],[57.05,26.50],[56.75,26.95],[56.45,27.00],[56.10,26.85],[55.95,26.60],[55.95,26.35]]]}},
    {"type": "Feature",
     "properties": {"id": "hormuz_west_approach", "name": "Persian Gulf western approach (coarse)", "kind": "approach", "verified": false,
                    "source": "coarse outline; edit before use", "use": "sentinel1_snapshot"},
     "geometry": {"type": "Polygon", "coordinates": [[[55.00,26.00],[55.95,26.00],[55.95,26.70],[55.00,26.70],[55.00,26.00]]]}},
    {"type": "Feature",
     "properties": {"id": "gulf_of_oman_approach", "name": "Gulf of Oman eastern approach (coarse)", "kind": "approach", "verified": false,
                    "source": "coarse outline; edit before use", "use": "sentinel1_snapshot"},
     "geometry": {"type": "Polygon", "coordinates": [[[56.75,25.60],[57.60,25.60],[57.60,26.40],[56.75,26.40],[56.75,25.60]]]}},
    {"type": "Feature",
     "properties": {"id": "fujairah_anchorage", "name": "Fujairah offshore anchorage area (coarse)", "kind": "anchorage", "verified": false,
                    "source": "coarse outline; edit to the charted anchorage before use", "use": "sentinel1_snapshot"},
     "geometry": {"type": "Polygon", "coordinates": [[[56.36,25.05],[56.62,25.05],[56.62,25.38],[56.36,25.38],[56.36,25.05]]]}}
  ]
}
